start=new Date('2021-11-17T00:00:00.000Z').valueOf();
sats=[{"EPHEMERIS_TYPE":"0","TLE_LINE1":"1 45213U 20012AM  21320.23230734 -.00000226  00000-0  36640-5 0  9997","MEAN_MOTION":"15.05589109","DECAY_DATE":null,"ECCENTRICITY":"0.00016770","RCS_SIZE":"LARGE","LAUNCH_DATE":"2020-02-17","OBJECT_ID":"2020-012AM","NORAD_CAT_ID":"45213","PERIOD":"95.644","REV_AT_EPOCH":"9781","COUNTRY_CODE":"US","OBJECT_TYPE":"PAYLOAD","ARG_OF_PERICENTER":"63.2740","CENTER_NAME":"EARTH","TIME_SYSTEM":"UTC","EPOCH":"2021-11-16T05:34:31.354176","MEAN_ELEMENT_THEORY":"SGP4","OBJECT_NAME":"STARLINK-1232","PERIAPSIS":"548.538","MEAN_MOTION_DDOT":"0.0000000000000","ELEMENT_SET_NO":"999","GP_ID":"189880598","RA_OF_ASC_NODE":"254.6299","SITE":"AFETR","TLE_LINE2":"2 45213  53.0555 254.6299 0001677  63.2740 296.8420 15.05589109 97819","MEAN_MOTION_DOT":"-0.00000226","REF_FRAME":"TEME","BSTAR":"0.00000366400000","MEAN_ANOMALY":"296.8420","FILE":"3216827","CLASSIFICATION_TYPE":"U","SEMIMAJOR_AXIS":"6927.835","APOAPSIS":"550.862","INCLINATION":"53.0555"},{"REV_AT_EPOCH":"9785","COUNTRY_CODE":"US","OBJECT_TYPE":"PAYLOAD","ARG_OF_PERICENTER":"71.3026","NORAD_CAT_ID":"45214","PERIOD":"95.592","MEAN_ELEMENT_THEORY":"SGP4","TIME_SYSTEM":"UTC","CENTER_NAME":"EARTH","EPOCH":"2021-11-16T12:52:00.442272","GP_ID":"189879346","ELEMENT_SET_NO":"999","RA_OF_ASC_NODE":"253.2643","SITE":"AFETR","OBJECT_NAME":"STARLINK-1233","MEAN_MOTION_DDOT":"0.0000000000000","PERIAPSIS":"546.100","CLASSIFICATION_TYPE":"U","SEMIMAJOR_AXIS":"6925.333","INCLINATION":"53.0525","APOAPSIS":"548.296","TLE_LINE2":"2 45214  53.0525 253.2643 0001586  71.3026 288.8135 15.06405046 97857","MEAN_MOTION_DOT":"0.00000075","BSTAR":"0.00002392700000","REF_FRAME":"TEME","MEAN_ANOMALY":"288.8135","FILE":"3216827","TLE_LINE1":"1 45214U 20012AN  21320.53611623  .00000075  00000-0  23927-4 0  9995","EPHEMERIS_TYPE":"0","DECAY_DATE":null,"MEAN_MOTION":"15.06405046","LAUNCH_DATE":"2020-02-17","OBJECT_ID":"2020-012AN","ECCENTRICITY":"0.00015860","RCS_SIZE":"LARGE"},{"DECAY_DATE":null,"MEAN_MOTION":"15.06379830","TLE_LINE1":"1 45215U 20012AP  21320.13436215 -.00000288  00000-0 -42900-6 0  9996","EPHEMERIS_TYPE":"0","OBJECT_ID":"2020-012AP","LAUNCH_DATE":"2020-02-17","ECCENTRICITY":"0.00019280","RCS_SIZE":"LARGE","MEAN_ELEMENT_THEORY":"SGP4","EPOCH":"2021-11-16T03:13:28.889760","CENTER_NAME":"EARTH","TIME_SYSTEM":"UTC","ARG_OF_PERICENTER":"62.1400","REV_AT_EPOCH":"9773","COUNTRY_CODE":"US","OBJECT_TYPE":"PAYLOAD","PERIOD":"95.593","NORAD_CAT_ID":"45215","SEMIMAJOR_AXIS":"6925.410","APOAPSIS":"548.611","INCLINATION":"53.0548","CLASSIFICATION_TYPE":"U","REF_FRAME":"TEME","BSTAR":"-0.00000042900000","FILE":"3216827","MEAN_ANOMALY":"297.9784","TLE_LINE2":"2 45215  53.0548 255.0694 0001928  62.1400 297.9784 15.06379830 97732","MEAN_MOTION_DOT":"-0.00000288","RA_OF_ASC_NODE":"255.0694","SITE":"AFETR","ELEMENT_SET_NO":"999","GP_ID":"189879590","OBJECT_NAME":"STARLINK-1245","MEAN_MOTION_DDOT":"0.0000000000000","PERIAPSIS":"545.940"},{"RCS_SIZE":"LARGE","ECCENTRICITY":"0.00026460","LAUNCH_DATE":"2020-02-17","OBJECT_ID":"2020-012AQ","EPHEMERIS_TYPE":"0","TLE_LINE1":"1 45216U 20012AQ  21320.84702740  .01020503  49948-3  22979-2 0  9992","MEAN_MOTION":"15.97165624","DECAY_DATE":null,"MEAN_MOTION_DDOT":"0.0004994800000","PERIAPSIS":"280.527","OBJECT_NAME":"STARLINK-1254","ELEMENT_SET_NO":"999","GP_ID":"189889797","SITE":"AFETR","RA_OF_ASC_NODE":"219.2950","MEAN_MOTION_DOT":"0.01020503","TLE_LINE2":"2 45216  53.0528 219.2950 0002646 202.1678 157.9236 15.97165624 97415","FILE":"3217122","MEAN_ANOMALY":"157.9236","REF_FRAME":"TEME","BSTAR":"0.00229790000000","CLASSIFICATION_TYPE":"U","INCLINATION":"53.0528","APOAPSIS":"284.051","SEMIMAJOR_AXIS":"6660.424","NORAD_CAT_ID":"45216","PERIOD":"90.160","OBJECT_TYPE":"PAYLOAD","COUNTRY_CODE":"US","REV_AT_EPOCH":"9741","ARG_OF_PERICENTER":"202.1678","CENTER_NAME":"EARTH","TIME_SYSTEM":"UTC","EPOCH":"2021-11-16T20:19:43.167360","MEAN_ELEMENT_THEORY":"SGP4"},{"DECAY_DATE":null,"MEAN_MOTION":"15.06397082","TLE_LINE1":"1 45217U 20012AR  21320.30758291  .00000311  00000-0  39777-4 0  9999","EPHEMERIS_TYPE":"0","LAUNCH_DATE":"2020-02-17","OBJECT_ID":"2020-012AR","RCS_SIZE":"LARGE","ECCENTRICITY":"0.00017260","MEAN_ELEMENT_THEORY":"SGP4","TIME_SYSTEM":"UTC","CENTER_NAME":"EARTH","EPOCH":"2021-11-16T07:22:55.163424","COUNTRY_CODE":"US","OBJECT_TYPE":"PAYLOAD","REV_AT_EPOCH":"9782","ARG_OF_PERICENTER":"73.8337","NORAD_CAT_ID":"45217","PERIOD":"95.592","CLASSIFICATION_TYPE":"U","APOAPSIS":"548.418","INCLINATION":"53.0548","SEMIMAJOR_AXIS":"6925.358","MEAN_MOTION_DOT":"0.00000311","TLE_LINE2":"2 45217  53.0548 254.2966 0001726  73.8337 286.2841 15.06397082 97825","MEAN_ANOMALY":"286.2841","FILE":"3216827","BSTAR":"0.00003977700000","REF_FRAME":"TEME","ELEMENT_SET_NO":"999","GP_ID":"189880098","SITE":"AFETR","RA_OF_ASC_NODE":"254.2966","PERIAPSIS":"546.027","MEAN_MOTION_DDOT":"0.0000000000000","OBJECT_NAME":"STARLINK-1271"},{"ECCENTRICITY":"0.00017890","RCS_SIZE":"LARGE","LAUNCH_DATE":"2020-02-17","OBJECT_ID":"2020-012AT","EPHEMERIS_TYPE":"0","TLE_LINE1":"1 45219U 20012AT  21320.77016855 -.00000286  00000-0 -29894-6 0  9999","MEAN_MOTION":"15.06396030","DECAY_DATE":null,"OBJECT_NAME":"STARLINK-1187","PERIAPSIS":"545.987","MEAN_MOTION_DDOT":"0.0000000000000","ELEMENT_SET_NO":"999","GP_ID":"189889119","RA_OF_ASC_NODE":"232.2183","SITE":"AFETR","TLE_LINE2":"2 45219  53.0537 232.2183 0001789  73.2467 286.8718 15.06396030 97224","MEAN_MOTION_DOT":"-0.00000286","BSTAR":"-0.00000029894000","REF_FRAME":"TEME","MEAN_ANOMALY":"286.8718","FILE":"3217078","CLASSIFICATION_TYPE":"U","SEMIMAJOR_AXIS":"6925.361","APOAPSIS":"548.465","INCLINATION":"53.0537","NORAD_CAT_ID":"45219","PERIOD":"95.592","REV_AT_EPOCH":"9722","COUNTRY_CODE":"US","OBJECT_TYPE":"PAYLOAD","ARG_OF_PERICENTER":"73.2467","TIME_SYSTEM":"UTC","CENTER_NAME":"EARTH","EPOCH":"2021-11-16T18:29:02.562720","MEAN_ELEMENT_THEORY":"SGP4"},{"EPOCH":"2021-11-16T19:41:24.091008","TIME_SYSTEM":"UTC","CENTER_NAME":"EARTH","MEAN_ELEMENT_THEORY":"SGP4","PERIOD":"90.514","NORAD_CAT_ID":"45220","ARG_OF_PERICENTER":"151.3020","COUNTRY_CODE":"US","OBJECT_TYPE":"PAYLOAD","REV_AT_EPOCH":"9778","FILE":"3216939","MEAN_ANOMALY":"208.8061","REF_FRAME":"TEME","BSTAR":"0.00001828000000","MEAN_MOTION_DOT":"0.00002382","TLE_LINE2":"2 45220  53.0500 192.4145 0001004 151.3020 208.8061 15.90912922 97787","INCLINATION":"53.0500","APOAPSIS":"300.399","SEMIMAJOR_AXIS":"6677.864","CLASSIFICATION_TYPE":"U","MEAN_MOTION_DDOT":"0.0000110690000","PERIAPSIS":"299.059","OBJECT_NAME":"STARLINK-1188","SITE":"AFETR","RA_OF_ASC_NODE":"192.4145","GP_ID":"189885490","ELEMENT_SET_NO":"999","MEAN_MOTION":"15.90912922","DECAY_DATE":null,"EPHEMERIS_TYPE":"0","TLE_LINE1":"1 45220U 20012AU  21320.82041772  .00002382  11069-4  18280-4 0  9996","RCS_SIZE":"LARGE","ECCENTRICITY":"0.00010040","OBJECT_ID":"2020-012AU","LAUNCH_DATE":"2020-02-17"},{"MEAN_MOTION":"15.06407567","DECAY_DATE":null,"EPHEMERIS_TYPE":"0","TLE_LINE1":"1 45221U 20012AV  21320.24307805  .00002264  00000-0  17083-3 0  9992","ECCENTRICITY":"0.00017380","RCS_SIZE":"LARGE","OBJECT_ID":"2020-012AV","LAUNCH_DATE":"2020-02-17","EPOCH":"2021-11-16T05:50:01.943520","CENTER_NAME":"EARTH","TIME_SYSTEM":"UTC","MEAN_ELEMENT_THEORY":"SGP4","PERIOD":"95.592","NORAD_CAT_ID":"45221","ARG_OF_PERICENTER":"78.8118","REV_AT_EPOCH":"9809","COUNTRY_CODE":"US","OBJECT_TYPE":"PAYLOAD","REF_FRAME":"TEME","BSTAR":"0.00017083000000","MEAN_ANOMALY":"281.3066","FILE":"3216827","TLE_LINE2":"2 45221  53.0550 234.5878 0001738  78.8118 281.3066 15.06407567 98096","MEAN_MOTION_DOT":"0.00002264","SEMIMAJOR_AXIS":"6925.325","APOAPSIS":"548.394","INCLINATION":"53.0550","CLASSIFICATION_TYPE":"U","OBJECT_NAME":"STARLINK-1189","MEAN_MOTION_DDOT":"0.0000000000000","PERIAPSIS":"545.987","RA_OF_ASC_NODE":"234.5878","SITE":"AFETR","GP_ID":"189879848","ELEMENT_SET_NO":"999"},{"OBJECT_NAME":"STARLINK-1191","MEAN_MOTION_DDOT":"0.0000000000000","PERIAPSIS":"546.006","RA_OF_ASC_NODE":"234.5607","SITE":"AFETR","ELEMENT_SET_NO":"999","GP_ID":"189880599","BSTAR":"0.00002729400000","REF_FRAME":"TEME","FILE":"3216827","MEAN_ANOMALY":"293.0177","TLE_LINE2":"2 45222  53.0552 234.5607 0001762  67.0998 293.0177 15.06395969 98097","MEAN_MOTION_DOT":"0.00000125","SEMIMAJOR_AXIS":"6925.361","APOAPSIS":"548.446","INCLINATION":"53.0552","CLASSIFICATION_TYPE":"U","PERIOD":"95.592","NORAD_CAT_ID":"45222","ARG_OF_PERICENTER":"67.0998","REV_AT_EPOCH":"9809","OBJECT_TYPE":"PAYLOAD","COUNTRY_CODE":"US","EPOCH":"2021-11-16T06:00:39.290400","CENTER_NAME":"EARTH","TIME_SYSTEM":"UTC","MEAN_ELEMENT_THEORY":"SGP4","ECCENTRICITY":"0.00017620","RCS_SIZE":"LARGE","OBJECT_ID":"2020-012AW","LAUNCH_DATE":"2020-02-17","EPHEMERIS_TYPE":"0","TLE_LINE1":"1 45222U 20012AW  21320.25045475  .00000125  00000-0  27294-4 0  9996","MEAN_MOTION":"15.06395969","DECAY_DATE":null},{"ARG_OF_PERICENTER":"67.1179","OBJECT_TYPE":"PAYLOAD","COUNTRY_CODE":"US","REV_AT_EPOCH":"9724","PERIOD":"95.593","NORAD_CAT_ID":"45223","MEAN_ELEMENT_THEORY":"SGP4","EPOCH":"2021-11-16T19:16:48.909504","TIME_SYSTEM":"UTC","CENTER_NAME":"EARTH","SITE":"AFETR","RA_OF_ASC_NODE":"232.0805","ELEMENT_SET_NO":"999","GP_ID":"189889767","PERIAPSIS":"546.080","MEAN_MOTION_DDOT":"0.0000000000000","OBJECT_NAME":"STARLINK-1212","APOAPSIS":"548.406","INCLINATION":"53.0547","SEMIMAJOR_AXIS":"6925.378","CLASSIFICATION_TYPE":"U","MEAN_ANOMALY":"292.9987","FILE":"3217117","REF_FRAME":"TEME","BSTAR":"0.00011402000000","MEAN_MOTION_DOT":"0.00001417","TLE_LINE2":"2 45223  53.0547 232.0805 0001679  67.1179 292.9987 15.06390415 97248","TLE_LINE1":"1 45223U 20012AX  21320.80334386  .00001417  00000-0  11402-3 0  9998","EPHEMERIS_TYPE":"0","DECAY_DATE":null,"MEAN_MOTION":"15.06390415","OBJECT_ID":"2020-012AX","LAUNCH_DATE":"2020-02-17","RCS_SIZE":"LARGE","ECCENTRICITY":"0.00016790"}];
